[{"OBJECT_NAME":"GEESAT-1 03","OBJECT_ID":"2022-058C","EPOCH":"2026-03-09T22:14:40.890624","MEAN_MOTION":14.81007855,"ECCENTRICITY":0.00085744,"INCLINATION":49.9869,"RA_OF_ASC_NODE":299.7347,"ARG_OF_PERICENTER":85.2975,"MEAN_ANOMALY":274.8941,"EPHEMERIS_TYPE":0,"CLASSIFICATION_TYPE":"U","NORAD_CAT_ID":52787,"ELEMENT_SET_NO":999,"REV_AT_EPOCH":20522,"BSTAR":0.00036442214,"MEAN_MOTION_DOT":2.633e-5,"MEAN_MOTION_DDOT":0},{"OBJECT_NAME":"CZ-4C DEB","OBJECT_ID":"2018-031E","EPOCH":"2026-03-09T22:35:07.887264","MEAN_MOTION":14.80225117,"ECCENTRICITY":0.00372542,"INCLINATION":97.6949,"RA_OF_ASC_NODE":76.8588,"ARG_OF_PERICENTER":305.4691,"MEAN_ANOMALY":54.3046,"EPHEMERIS_TYPE":0,"CLASSIFICATION_TYPE":"U","NORAD_CAT_ID":43263,"ELEMENT_SET_NO":999,"REV_AT_EPOCH":42668,"BSTAR":0.00049326267,"MEAN_MOTION_DOT":3.744e-5,"MEAN_MOTION_DDOT":0}]
